GPS BIIA-23 (PRN 18)    
1 22877U 93068A   18319.56926141 -.00000024  00000-0  00000+0 0  9994
2 22877  54.5333  77.2964 0147589  77.9061 189.4928  2.00570008183588
GPS BIIR-2  (PRN 13)    
1 24876U 97035A   18319.09587228 -.00000005  00000-0  00000+0 0  9999
2 24876  55.4718 206.8516 0033760  80.5831 279.8724  2.00564248156171
GPS BIIR-3  (PRN 11)    
1 25933U 99055A   18319.30259716 -.00000070  00000-0  00000+0 0  9992
2 25933  51.9908  55.1153 0166063 105.6247 331.1842  2.00563772139998
GPS BIIR-4  (PRN 20)    
1 26360U 00025A   18319.13287430  .00000062  00000-0  00000+0 0  9991
2 26360  53.2508 133.3679 0042684 125.6280 234.8005  2.00563413135681
GPS BIIR-5  (PRN 28)    
1 26407U 00040A   18319.38341041 -.00000038  00000-0  00000+0 0  9990
2 26407  56.3961 324.9765 0198596 274.0891 243.8968  2.00561843134362
GPS BIIR-6  (PRN 14)    
1 26605U 00071A   18319.40470323 -.00000000  00000-0  00000+0 0  9992
2 26605  55.0453 204.3715 0102092 249.0130 193.4311  2.00566706131962
GPS BIIR-8  (PRN 16)    
1 27663U 03005A   18319.24906576 -.00000038  00000-0  00000+0 0  9994
2 27663  56.4587 324.7466 0100299  28.4726 152.1139  2.00557844115726
GPS BIIR-9  (PRN 21)    
1 27704U 03010A   18319.43075075 -.00000026  00000-0  00000+0 0  9995
2 27704  54.2058  76.8402 0247073 273.2699   1.7842  2.00573320114532
GPS BIIR-10 (PRN 22)    
1 28129U 03058A   18318.79331619  .00000058  00000-0  00000+0 0  9990
2 28129  53.0635 136.2087 0072074 276.0394  83.1707  2.00564761109214
GPS BIIR-11 (PRN 19)    
1 28190U 04009A   18318.75484742 -.00000092  00000-0  00000+0 0  9996
2 28190  56.2205  25.5755 0092406  74.8838 257.4181  2.00571816107398
GPS BIIR-12 (PRN 23)    
1 28361U 04023A   18319.31061420  .00000005  00000-0  00000+0 0  9992
2 28361  54.0513 198.9622 0127819 227.7922  59.7084  2.00560571105483
GPS BIIR-13 (PRN 02)    
1 28474U 04045A   18319.42077279 -.00000026  00000-0  00000+0 0  9996
2 28474  54.5698  76.5123 0186465 256.1597 113.4855  2.00572911102853
GPS BIIRM-1 (PRN 17)    
1 28874U 05038A   18319.33793647 -.00000090  00000-0  00000+0 0  9998
2 28874  56.3546  22.8805 0130824 259.3395 159.9140  2.00567788 96253
GPS BIIRM-2 (PRN 31)    
1 29486U 06042A   18319.17234459 -.00000028  00000-0  00000+0 0  9998
2 29486  55.1020 261.6181 0090786 354.0906 223.7612  2.00551065 88964
GPS BIIRM-3 (PRN 12)    
1 29601U 06052A   18319.30989211 -.00000037  00000-0  00000+0 0  9996
2 29601  56.4363 323.6609 0068670  57.4290 303.2595  2.00555907 87881
GPS BIIRM-4 (PRN 15)    
1 32260U 07047A   18319.13078346  .00000009  00000-0  00000+0 0  9993
2 32260  53.1752 194.8548 0108616  41.0538 319.8413  2.00572384 81267
GPS BIIRM-5 (PRN 29)    
1 32384U 07062A   18319.36559896 -.00000090  00000-0  00000+0 0  9997
2 32384  56.4327  23.5009 0004302  97.7469 209.1610  2.00572504 79997
GPS BIIRM-6 (PRN 07)    
1 32711U 08012A   18319.03746683 -.00000028  00000-0  00000+0 0  9994
2 32711  54.8379 260.8648 0122518 218.6567 140.4664  2.00568361 78180
GPS BIIRM-8 (PRN 05)    
1 35752U 09043A   18319.52136384  .00000071  00000-0  00000+0 0  9999
2 35752  54.3596 138.5705 0054415  39.3458 335.0742  2.00574818 67772
GPS BIIF-1  (PRN 25)    
1 36585U 10022A   18319.54010545 -.00000035  00000-0  00000+0 0  9996
2 36585  55.7219 320.1046 0074283  47.4962  90.5619  2.00576730 62019
GPS BIIF-2  (PRN 01)    
1 37753U 11036A   18319.33636417 -.00000016  00000-0  00000+0 0  9998
2 37753  55.7675  80.2231 0080161  38.8424  34.6516  2.00565072 53698
GPS BIIF-3  (PRN 24)    
1 38833U 12053A   18319.21678072 -.00000031  00000-0  00000+0 0  9995
2 38833  53.8699 257.2674 0075235  29.9241 330.5112  2.00569723 44758
GPS BIIF-4  (PRN 27)    
1 39166U 13023A   18318.58250995 -.00000093  00000-0  00000+0 0  9990
2 39166  56.0455  19.7571 0060640  22.9341 337.3866  2.00561128 40284
GPS BIIF-5  (PRN 30)    
1 39533U 14008A   18319.07970725 -.00000030  00000-0  00000+0 0  9998
2 39533  54.0092 262.6429 0036244 192.7909 167.1210  2.00564444 34668
GPS BIIF-6  (PRN 06)    
1 39741U 14026A   18319.35890135 -.00000017  00000-0  00000+0 0  9991
2 39741  55.7495  79.7463 0013096 286.7732  73.0760  2.00556186 32945
GPS BIIF-7  (PRN 09)    
1 40105U 14045A   18318.94684533  .00000003  00000-0  00000+0 0  9999
2 40105  54.5777 199.1633 0011338  97.3590 262.8498  2.00549897 31386
GPS BIIF-8  (PRN 03)    
1 40294U 14068A   18318.82379288  .00000065  00000-0  00000+0 0  9996
2 40294  55.1109 139.9837 0017118  34.4812 325.6671  2.00567518 29603
GPS BIIF-9  (PRN 26)    
1 40534U 15013A   18318.96099562 -.00000039  00000-0  00000+0 0  9995
2 40534  54.6578 318.6932 0031964 358.3383   1.6701  2.00554773 26670
GPS BIIF-10  (PRN 08)   
1 40730U 15033A   18319.11733165 -.00000092  00000-0  00000+0 0  9996
2 40730  55.5738  19.1731 0038829 332.9870  26.8624  2.00566384 24438
GPS BIIF-11  (PRN 10)   
1 41019U 15062A   18319.17023315  .00000069  00000-0  00000+0 0  9997
2 41019  55.1144 139.7780 0040701 201.5105 158.3558  2.00564679 22253
GPS BIIF-12  (PRN 32)   
1 41328U 16007A   18318.76213603  .00000002  00000-0  00000+0 0  9992
2 41328  54.8254 199.5024 0024474 215.2922 144.6253  2.00557426 20303
